CCSDS_OMM_VERS = 2.0
CREATION_DATE  = 
ORIGINATOR     = 

OBJECT_NAME    = 2026-052F
OBJECT_ID      = 2026-052F
CENTER_NAME    = EARTH
REF_FRAME      = TEME
TIME_SYSTEM    = UTC
MEAN_ELEMENT_THEORY = SGP/SGP4

EPOCH          = 2026-04-01T23:26:10.591872
MEAN_MOTION    = 15.10749767
ECCENTRICITY   = .00104467
INCLINATION    = 97.5354
RA_OF_ASC_NODE = 167.9778
ARG_OF_PERICENTER = 200.0353
MEAN_ANOMALY   = 160.0468

EPHEMERIS_TYPE = 0
CLASSIFICATION_TYPE = U
NORAD_CAT_ID   = 68203
ELEMENT_SET_NO = 999
REV_AT_EPOCH   = 254
BSTAR          = .46984477E-3
MEAN_MOTION_DOT = .7741E-4
MEAN_MOTION_DDOT = 0

CCSDS_OMM_VERS = 2.0
CREATION_DATE  = 
ORIGINATOR     = 

OBJECT_NAME    = 2026-052G
OBJECT_ID      = 2026-052G
CENTER_NAME    = EARTH
REF_FRAME      = TEME
TIME_SYSTEM    = UTC
MEAN_ELEMENT_THEORY = SGP/SGP4

EPOCH          = 2026-04-01T23:25:24.149280
MEAN_MOTION    = 15.10795598
ECCENTRICITY   = .00100254
INCLINATION    = 97.5366
RA_OF_ASC_NODE = 167.9734
ARG_OF_PERICENTER = 202.7469
MEAN_ANOMALY   = 157.3318

EPHEMERIS_TYPE = 0
CLASSIFICATION_TYPE = U
NORAD_CAT_ID   = 68204
ELEMENT_SET_NO = 999
REV_AT_EPOCH   = 254
BSTAR          = .4539133E-3
MEAN_MOTION_DOT = .7485E-4
MEAN_MOTION_DDOT = 0

CCSDS_OMM_VERS = 2.0
CREATION_DATE  = 
ORIGINATOR     = 

OBJECT_NAME    = KZ-11 R/B
OBJECT_ID      = 2026-052H
CENTER_NAME    = EARTH
REF_FRAME      = TEME
TIME_SYSTEM    = UTC
MEAN_ELEMENT_THEORY = SGP/SGP4

EPOCH          = 2026-04-01T23:53:53.257056
MEAN_MOTION    = 14.67480811
ECCENTRICITY   = .05447417
INCLINATION    = 97.3409
RA_OF_ASC_NODE = 166.9195
ARG_OF_PERICENTER = 318.4466
MEAN_ANOMALY   = 37.6509

EPHEMERIS_TYPE = 0
CLASSIFICATION_TYPE = U
NORAD_CAT_ID   = 68205
ELEMENT_SET_NO = 999
REV_AT_EPOCH   = 247
BSTAR          = .39370144E-3
MEAN_MOTION_DOT = .26183E-3
MEAN_MOTION_DDOT = .1976384E-5

CCSDS_OMM_VERS = 2.0
CREATION_DATE  = 
ORIGINATOR     = 

OBJECT_NAME    = 2026-052J
OBJECT_ID      = 2026-052J
CENTER_NAME    = EARTH
REF_FRAME      = TEME
TIME_SYSTEM    = UTC
MEAN_ELEMENT_THEORY = SGP/SGP4

EPOCH          = 2026-04-01T23:44:54.032928
MEAN_MOTION    = 14.68767482
ECCENTRICITY   = .05400356
INCLINATION    = 97.3408
RA_OF_ASC_NODE = 166.9261
ARG_OF_PERICENTER = 318.4593
MEAN_ANOMALY   = 37.6730

EPHEMERIS_TYPE = 0
CLASSIFICATION_TYPE = U
NORAD_CAT_ID   = 68206
ELEMENT_SET_NO = 999
REV_AT_EPOCH   = 247
BSTAR          = .11231756E-2
MEAN_MOTION_DOT = .76932E-3
MEAN_MOTION_DDOT = .2792281E-5

CCSDS_OMM_VERS = 2.0
CREATION_DATE  = 
ORIGINATOR     = 

OBJECT_NAME    = STARLINK-36986
OBJECT_ID      = 2026-053A
CENTER_NAME    = EARTH
REF_FRAME      = TEME
TIME_SYSTEM    = UTC
MEAN_ELEMENT_THEORY = SGP/SGP4

EPOCH          = 2026-04-01T23:09:44.818848
MEAN_MOTION    = 15.80866914
ECCENTRICITY   = .00011741
INCLINATION    = 97.2841
RA_OF_ASC_NODE = 327.3885
ARG_OF_PERICENTER = 102.5435
MEAN_ANOMALY   = 257.5965

EPHEMERIS_TYPE = 0
CLASSIFICATION_TYPE = U
NORAD_CAT_ID   = 68207
ELEMENT_SET_NO = 999
REV_AT_EPOCH   = 373
BSTAR          = .65402181E-3
MEAN_MOTION_DOT = .127272E-2
MEAN_MOTION_DDOT = 0

CCSDS_OMM_VERS = 2.0
CREATION_DATE  = 
ORIGINATOR     = 

OBJECT_NAME    = STARLINK-37009
OBJECT_ID      = 2026-053B
CENTER_NAME    = EARTH
REF_FRAME      = TEME
TIME_SYSTEM    = UTC
MEAN_ELEMENT_THEORY = SGP/SGP4

EPOCH          = 2026-04-01T21:37:30.910944
MEAN_MOTION    = 15.80829472
ECCENTRICITY   = .00013886
INCLINATION    = 97.2845
RA_OF_ASC_NODE = 327.3217
ARG_OF_PERICENTER = 98.3826
MEAN_ANOMALY   = 261.7600

EPHEMERIS_TYPE = 0
CLASSIFICATION_TYPE = U
NORAD_CAT_ID   = 68208
ELEMENT_SET_NO = 999
REV_AT_EPOCH   = 372
BSTAR          = .97311727E-3
MEAN_MOTION_DOT = .1905E-2
MEAN_MOTION_DDOT = 0

CCSDS_OMM_VERS = 2.0
CREATION_DATE  = 
ORIGINATOR     = 

OBJECT_NAME    = STARLINK-36948
OBJECT_ID      = 2026-053C
CENTER_NAME    = EARTH
REF_FRAME      = TEME
TIME_SYSTEM    = UTC
MEAN_ELEMENT_THEORY = SGP/SGP4

EPOCH          = 2026-04-01T21:36:25.604640
MEAN_MOTION    = 15.80901945
ECCENTRICITY   = .00014056
INCLINATION    = 97.2843
RA_OF_ASC_NODE = 327.3233
ARG_OF_PERICENTER = 91.8979
MEAN_ANOMALY   = 268.2450

EPHEMERIS_TYPE = 0
CLASSIFICATION_TYPE = U
NORAD_CAT_ID   = 68209
ELEMENT_SET_NO = 999
REV_AT_EPOCH   = 370
BSTAR          = .86713442E-3
MEAN_MOTION_DOT = .169895E-2
MEAN_MOTION_DDOT = 0

CCSDS_OMM_VERS = 2.0
CREATION_DATE  = 
ORIGINATOR     = 

OBJECT_NAME    = STARLINK-37119
OBJECT_ID      = 2026-053D
CENTER_NAME    = EARTH
REF_FRAME      = TEME
TIME_SYSTEM    = UTC
MEAN_ELEMENT_THEORY = SGP/SGP4

EPOCH          = 2026-04-01T21:35:20.516064
MEAN_MOTION    = 15.80941072
ECCENTRICITY   = .00018248
INCLINATION    = 97.2844
RA_OF_ASC_NODE = 327.3237
ARG_OF_PERICENTER = 89.2003
MEAN_ANOMALY   = 270.9474

EPHEMERIS_TYPE = 0
CLASSIFICATION_TYPE = U
NORAD_CAT_ID   = 68210
ELEMENT_SET_NO = 999
REV_AT_EPOCH   = 372
BSTAR          = .12267847E-2
MEAN_MOTION_DOT = .242891E-2
MEAN_MOTION_DDOT = 0

CCSDS_OMM_VERS = 2.0
CREATION_DATE  = 
ORIGINATOR     = 

OBJECT_NAME    = STARLINK-37120
OBJECT_ID      = 2026-053E
CENTER_NAME    = EARTH
REF_FRAME      = TEME
TIME_SYSTEM    = UTC
MEAN_ELEMENT_THEORY = SGP/SGP4

EPOCH          = 2026-04-01T21:34:15.880224
MEAN_MOTION    = 15.80906210
ECCENTRICITY   = .00015083
INCLINATION    = 97.2847
RA_OF_ASC_NODE = 327.3248
ARG_OF_PERICENTER = 103.9096
MEAN_ANOMALY   = 256.2340

EPHEMERIS_TYPE = 0
CLASSIFICATION_TYPE = U
NORAD_CAT_ID   = 68211
ELEMENT_SET_NO = 999
REV_AT_EPOCH   = 370
BSTAR          = .94238481E-3
MEAN_MOTION_DOT = .18501E-2
MEAN_MOTION_DDOT = 0

CCSDS_OMM_VERS = 2.0
CREATION_DATE  = 
ORIGINATOR     = 

OBJECT_NAME    = STARLINK-37117
OBJECT_ID      = 2026-053F
CENTER_NAME    = EARTH
REF_FRAME      = TEME
TIME_SYSTEM    = UTC
MEAN_ELEMENT_THEORY = SGP/SGP4

EPOCH          = 2026-04-01T21:33:11.119104
MEAN_MOTION    = 15.80881252
ECCENTRICITY   = .00016255
INCLINATION    = 97.2848
RA_OF_ASC_NODE = 327.3265
ARG_OF_PERICENTER = 79.7620
MEAN_ANOMALY   = 280.3832

EPHEMERIS_TYPE = 0
CLASSIFICATION_TYPE = U
NORAD_CAT_ID   = 68212
ELEMENT_SET_NO = 999
REV_AT_EPOCH   = 372
BSTAR          = .70162848E-3
MEAN_MOTION_DOT = .136789E-2
MEAN_MOTION_DDOT = 0

CCSDS_OMM_VERS = 2.0
CREATION_DATE  = 
ORIGINATOR     = 

OBJECT_NAME    = STARLINK-37116
OBJECT_ID      = 2026-053G
CENTER_NAME    = EARTH
REF_FRAME      = TEME
TIME_SYSTEM    = UTC
MEAN_ELEMENT_THEORY = SGP/SGP4

EPOCH          = 2026-04-01T21:32:06.103104
MEAN_MOTION    = 15.80899730
ECCENTRICITY   = .00016928
INCLINATION    = 97.2849
RA_OF_ASC_NODE = 327.3275
ARG_OF_PERICENTER = 91.4409
MEAN_ANOMALY   = 268.7053

EPHEMERIS_TYPE = 0
CLASSIFICATION_TYPE = U
NORAD_CAT_ID   = 68213
ELEMENT_SET_NO = 999
REV_AT_EPOCH   = 372
BSTAR          = .92354571E-3
MEAN_MOTION_DOT = .181176E-2
MEAN_MOTION_DDOT = 0

CCSDS_OMM_VERS = 2.0
CREATION_DATE  = 
ORIGINATOR     = 

OBJECT_NAME    = STARLINK-35854
OBJECT_ID      = 2026-053H
CENTER_NAME    = EARTH
REF_FRAME      = TEME
TIME_SYSTEM    = UTC
MEAN_ELEMENT_THEORY = SGP/SGP4

EPOCH          = 2026-04-01T21:31:01.089696
MEAN_MOTION    = 15.80941517
ECCENTRICITY   = .00018976
INCLINATION    = 97.2847
RA_OF_ASC_NODE = 327.3282
ARG_OF_PERICENTER = 91.8432
MEAN_ANOMALY   = 268.3054

EPHEMERIS_TYPE = 0
CLASSIFICATION_TYPE = U
NORAD_CAT_ID   = 68214
ELEMENT_SET_NO = 999
REV_AT_EPOCH   = 370
BSTAR          = .13727623E-2
MEAN_MOTION_DOT = .272756E-2
MEAN_MOTION_DDOT = 0

