2026-052F               
1 68203U 26052F   26091.97651148  .00007741  00000+0  46984-3 0  9995
2 68203  97.5354 167.9778 0010446 200.0353 160.0468 15.10749767  2540
2026-052G               
1 68204U 26052G   26091.97597395  .00007485  00000+0  45391-3 0  9995
2 68204  97.5366 167.9734 0010025 202.7469 157.3318 15.10795598  2542
KZ-11 R/B               
1 68205U 26052H   26091.99575529  .00026183  19764-5  39370-3 0  9992
2 68205  97.3409 166.9195 0544741 318.4466  37.6509 14.67480811  2472
2026-052J               
1 68206U 26052J   26091.98951427  .00076932  27923-5  11232-2 0  9996
2 68206  97.3408 166.9261 0540035 318.4593  37.6730 14.68767482  2478
STARLINK-36986          
1 68207U 26053A   26091.96510207  .00127272  00000+0  65402-3 0  9997
2 68207  97.2841 327.3885 0001174 102.5435 257.5965 15.80866914  3735
STARLINK-37009          
1 68208U 26053B   26091.90105221  .00190500  00000+0  97312-3 0  9997
2 68208  97.2845 327.3217 0001388  98.3826 261.7600 15.80829472  3722
STARLINK-36948          
1 68209U 26053C   26091.90029635  .00169895  00000+0  86713-3 0  9998
2 68209  97.2843 327.3233 0001405  91.8979 268.2450 15.80901945  3705
STARLINK-37119          
1 68210U 26053D   26091.89954301  .00242891  00000+0  12268-2 0  9996
2 68210  97.2844 327.3237 0001824  89.2003 270.9474 15.80941072  3729
STARLINK-37120          
1 68211U 26053E   26091.89879491  .00185010  00000+0  94238-3 0  9990
2 68211  97.2847 327.3248 0001508 103.9096 256.2340 15.80906210  3702
STARLINK-37117          
1 68212U 26053F   26091.89804536  .00136789  00000+0  70163-3 0  9999
2 68212  97.2848 327.3265 0001625  79.7620 280.3832 15.80881252  3720
STARLINK-37116          
1 68213U 26053G   26091.89729286  .00181176  00000+0  92355-3 0  9995
2 68213  97.2849 327.3275 0001692  91.4409 268.7053 15.80899730  3728
STARLINK-35854          
1 68214U 26053H   26091.89654039  .00272756  00000+0  13728-2 0  9990
2 68214  97.2847 327.3282 0001897  91.8432 268.3054 15.80941517  3708
